GLOBALSTAR M057         
1 25943U 99058A   24260.81167587 -.00000031  00000+0  56229-3 0  9992
2 25943  51.9999  44.0224 0002733 156.2395 203.8581 12.24796547133437
GLOBALSTAR M059         
1 25944U 99058B   24260.95373536 -.00000090  00000+0 -50386-4 0  9996
2 25944  51.9997 226.3501 0000442  73.5589 324.0772 11.99965865541242
GLOBALSTAR M056         
1 25945U 99058C   24260.95985285 -.00000098  00000+0 -12129-3 0  9997
2 25945  51.9943 235.3077 0001061   2.4616  12.2186 12.04777922129690
GLOBALSTAR M031         
1 25946U 99058D   24260.86450522 -.00000118  00000+0 -27517-3 0  9999
2 25946  51.9947 144.2605 0001739   8.6295  72.9378 12.16016387131292
GLOBALSTAR M039         
1 25961U 99062A   24261.46611456 -.00000074  00000+0  16852-3 0  9993
2 25961  51.9873  19.3568 0003473 104.7109 255.4142 12.62303042145803
GLOBALSTAR M034         
1 25962U 99062B   24260.53975372 -.00000047  00000+0  53883-3 0  9996
2 25962  51.9909   2.7063 0013610 242.8278 130.2931 11.79432309106107
GLOBALSTAR M029         
1 25963U 99062C   24261.52020569 -.00000065  00000+0  25689-3 0  9999
2 25963  51.9787 113.0886 0002106 320.2087  45.9061 11.99883065136445
GLOBALSTAR M061         
1 25964U 99062D   24260.95853500 -.00000077  00000+0  59573-4 0  9998
2 25964  51.9782 182.0293 0005655 166.6758 275.3037 11.76765257 89017
